NORAD_CAT_ID,OBJECT_NAME,OBJECT_TYPE,EPOCH,MEAN_MOTION,ECCENTRICITY,INCLINATION,RA_OF_ASC_NODE,ARG_OF_PERICENTER,MEAN_ANOMALY,BSTAR,MEAN_MOTION_DOT,MEAN_MOTION_DDOT,TLE_LINE0,TLE_LINE1,TLE_LINE2,SEMIMAJOR_AXIS,PERIOD,APOGEE,PERIGEE,DECAYED
51956.0,STARLINK-3700,PAYLOAD,2022-05-09 14:00:01,15.49824196,0.0001921,53.2134,199.0438,40.3057,321.2789,0.00077903,0.00043917,0.0,0 STARLINK-3700,1 51956U 22025A   22129.58335648  .00043917  00000-0  77903-3 0  9998,2 51956  53.2134 199.0438 0001921  40.3057 321.2789 15.49824196 10857,6795.377,92.914,418.547,415.937,0.0
51956.0,STARLINK-3700,PAYLOAD,2022-05-09 22:00:00,15.4986187,0.0001786,53.213,197.4502,42.3072,20.0788,0.00014133,7.571e-05,0.0,0 STARLINK-3700,1 51956U 22025A   22129.91667824  .00007571  00000-0  14133-3 0  9991,2 51956  53.2130 197.4502 0001786  42.3072  20.0788 15.49861870  3692,6795.267,92.912,418.345,415.918,0.0
51956.0,STARLINK-3700,PAYLOAD,2022-05-10 08:00:01,15.49879016,0.0001852,53.2129,195.4595,44.0382,184.4369,-0.00034027,-0.00019712,0.0,0 STARLINK-3700,1 51956U 22025A   22130.33334491 -.00019712  00000-0 -34027-3 0  9996,2 51956  53.2129 195.4595 0001852  44.0382 184.4369 15.49879016 10977,6795.217,92.91,418.34,415.823,0.0
51956.0,STARLINK-3700,PAYLOAD,2022-05-10 14:00:01,15.49847045,0.0002001,53.2128,194.2659,40.2825,143.8727,0.00086302,0.00048771,0.0,0 STARLINK-3700,1 51956U 22025A   22130.58334491  .00048771  00000-0  86302-3 0  9991,2 51956  53.2128 194.2659 0002001  40.2825 143.8727 15.49847045  3696,6795.31,92.912,418.535,415.815,0.0
51956.0,STARLINK-3700,PAYLOAD,2022-05-10 18:00:00,15.49885443,0.0001933,53.213,193.4665,38.8687,355.7246,-0.00020572,-0.0001211,0.0,0 STARLINK-3700,1 51956U 22025A   22130.75001157 -.00012110  00000-0 -20572-3 0  9997,2 51956  53.2130 193.4665 0001933  38.8687 355.7246 15.49885443 11030,6795.198,92.91,418.376,415.749,0.0
51956.0,STARLINK-3700,PAYLOAD,2022-05-11 22:00:00,15.49082119,0.0001585999999999,53.2175,187.8763,35.37300000000001,31.7972,-0.014087,-0.00719754,0.0,0 STARLINK-3700,1 51956U 22025A   22131.91667824 -.00719754  00000-0 -14087-1 0  9995,2 51956  53.2175 187.8763 0001586  35.3730  31.7972 15.49082119 11216,6797.547,92.958,420.49,418.334,0.0
51956.0,STARLINK-3700,PAYLOAD,2022-05-12 14:00:01,15.48058292,0.000183,53.2174,184.6929,37.7853,148.0525,-0.014455,-0.00712961,0.0,0 STARLINK-3700,1 51956U 22025A   22132.58334491 -.00712961  00000-0 -14455-1 0  9992,2 51956  53.2174 184.6929 0001830  37.7853 148.0525 15.48058292  1307,6800.544,93.02,423.653,421.164,0.0
51956.0,STARLINK-3700,PAYLOAD,2022-05-12 20:00:01,15.47681124,0.0001855,53.2173,183.4984,33.7489,105.9561,-0.014842,-0.00721743,0.0,0 STARLINK-3700,1 51956U 22025A   22132.83334491 -.00721743  00000-0 -14842-1 0  9998,2 51956  53.2173 183.4984 0001855  33.7489 105.9561 15.47681124 11355,6801.648,93.042,424.775,422.252,0.0
51956.0,STARLINK-3700,PAYLOAD,2022-05-12 22:00:00,15.4755263,0.0001730999999999,53.2176,183.1003,38.6953,205.5566,-0.014868,-0.00719888,0.0,0 STARLINK-3700,1 51956U 22025A   22132.91667824 -.00719888  00000-0 -14868-1 0  9991,2 51956  53.2176 183.1003 0001731  38.6953 205.5566 15.47552630  1305,6802.025,93.05,425.067,422.713,0.0
51956.0,STARLINK-3700,PAYLOAD,2022-05-13 14:00:01,15.46531439,0.00017,53.2175,179.9246,33.125,326.1165,-0.015356,-0.00717691,0.0,0 STARLINK-3700,1 51956U 22025A   22133.58334491 -.00717691  00000-0 -15356-1 0  9999,2 51956  53.2175 179.9246 0001700  33.1250 326.1165 15.46531439  1300,6805.019,93.112,428.041,425.727,0.0
51956.0,STARLINK-3700,PAYLOAD,2022-05-13 22:00:00,15.4602179,0.0001636999999999,53.2176,178.3357,33.3852,22.4337,-0.015652,-0.00718632,0.0,0 STARLINK-3700,1 51956U 22025A   22133.91667824 -.00718632  00000-0 -15652-1 0  9990,2 51956  53.2176 178.3357 0001637  33.3852  22.4337 15.46021790 11522,6806.514,93.142,429.494,427.265,0.0
51956.0,STARLINK-3700,PAYLOAD,2022-05-14 14:00:01,15.44998852,0.000168,53.2173,175.1672,43.293,123.8394,-0.016076,-0.00712979,0.0,0 STARLINK-3700,1 51956U 22025A   22134.58334491 -.00712979  00000-0 -16076-1 0  9994,2 51956  53.2173 175.1672 0001680  43.2930 123.8394 15.44998852  1303,6809.518,93.204,432.527,430.239,0.0
51956.0,STARLINK-3700,PAYLOAD,2022-05-14 22:00:00,15.44491424,0.0001723,53.2175,173.5817,40.9338,180.9365,-0.016456,-0.00716938,0.0,0 STARLINK-3700,1 51956U 22025A   22134.91667824 -.00716938  00000-0 -16456-1 0  9991,2 51956  53.2175 173.5817 0001723  40.9338 180.9365 15.44491424 11689,6811.01,93.235,434.048,431.701,0.0
51956.0,STARLINK-3700,PAYLOAD,2022-05-15 14:00:01,15.43471847,0.0001439,53.2173,170.4207,46.0674,283.5028,-0.017044,-0.00717121,0.0,0 STARLINK-3700,1 51956U 22025A   22135.58335648 -.00717121  00000-0 -17044-1 0  9990,2 51956  53.2173 170.4207 0001439  46.0674 283.5028 15.43471847  1300,6814.009,93.296,436.854,434.893,0.0
51956.0,STARLINK-3700,PAYLOAD,2022-05-15 22:00:00,15.42961163,0.0001584,53.2174,168.8391,35.2982,347.1088,-0.017337,-0.00716957,0.0,0 STARLINK-3700,1 51956U 22025A   22135.91667824 -.00716957  00000-0 -17337-1 0  9992,2 51956  53.2174 168.8391 0001584  35.2982 347.1088 15.42961163 11835,6815.512,93.327,438.457,436.298,0.0
51956.0,STARLINK-3700,PAYLOAD,2022-05-16 14:00:01,15.41941601,0.0001716,53.2171,165.6853,37.3955,88.9703,-0.01794,-0.00716836,0.0,0 STARLINK-3700,1 51956U 22025A   22136.58334491 -.00716836  00000-0 -17940-1 0  9993,2 51956  53.2171 165.6853 0001716  37.3955  88.9703 15.41941601  1309,6818.516,93.389,441.551,439.211,0.0
51956.0,STARLINK-3700,PAYLOAD,2022-05-16 22:00:00,15.41431504,0.0001817,53.2171,164.1073,36.9198,140.5082,-0.018247,-0.00716749,0.0,0 STARLINK-3700,1 51956U 22025A   22136.91667824 -.00716749  00000-0 -18247-1 0  9993,2 51956  53.2171 164.1073 0001817  36.9198 140.5082 15.41431504 11990,6820.021,93.42,443.125,440.646,0.0
51956.0,STARLINK-3700,PAYLOAD,2022-05-17 14:00:01,15.40413223,0.000157,53.2171,160.9605,45.0876,232.6864,-0.018941,-0.00718923,0.0,0 STARLINK-3700,1 51956U 22025A   22137.58335648 -.00718923  00000-0 -18941-1 0  9990,2 51956  53.2171 160.9605 0001570  45.0876 232.6864 15.40413223  1307,6823.026,93.481,445.962,443.82,0.0
51956.0,STARLINK-3700,PAYLOAD,2022-05-17 20:00:01,15.40029959,0.0001759,53.2175,159.7795,40.2884,184.3972,-0.019153,-0.00717882,0.0,0 STARLINK-3700,1 51956U 22025A   22137.83334491 -.00717882  00000-0 -19153-1 0  9992,2 51956  53.2175 159.7795 0001759  40.2884 184.3972 15.40029959 12137,6824.158,93.505,447.223,444.822,0.0
51956.0,STARLINK-3700,PAYLOAD,2022-05-17 22:00:01,15.39900774,0.0001598,53.2173,159.3863,38.857,288.1418,-0.019167,-0.00715499,0.0,0 STARLINK-3700,1 51956U 22025A   22137.91668981 -.00715499  00000-0 -19167-1 0  9992,2 51956  53.2173 159.3863 0001598  38.8570 288.1418 15.39900774  1309,6824.5390000000025,93.513,447.495,445.314,0.0
51956.0,STARLINK-3700,PAYLOAD,2022-05-18 14:00:01,15.38882699,0.0001534,53.2172,156.2469,37.9276,25.6118,-0.019885,-0.00717566,0.0,0 STARLINK-3700,1 51956U 22025A   22138.58334491 -.00717566  00000-0 -19885-1 0  9996,2 51956  53.2172 156.2469 0001534  37.9276  25.6118 15.38882699  1304,6827.549,93.574,450.461,448.367,0.0
51956.0,STARLINK-3700,PAYLOAD,2022-05-18 20:00:01,15.38499864,0.0001478,53.2175,155.0687,40.7502,328.3863,-0.02015,-0.00717987,0.0,0 STARLINK-3700,1 51956U 22025A   22138.83334491 -.00717987  00000-0 -20150-1 0  9998,2 51956  53.2175 155.0687 0001478  40.7502 328.3863 15.38499864 12284,6828.682,93.598,451.556,449.537,0.0
51956.0,STARLINK-3700,PAYLOAD,2022-05-18 22:00:00,15.38372581,0.0001631,53.2173,154.6764,39.647,71.2782,-0.020251,-0.00718554,0.0,0 STARLINK-3700,1 51956U 22025A   22138.91667824 -.00718554  00000-0 -20251-1 0  9999,2 51956  53.2173 154.6764 0001631  39.6470  71.2782 15.38372581  1306,6829.058000000001,93.605,452.037,449.809,0.0
51956.0,STARLINK-3700,PAYLOAD,2022-05-19 14:00:01,15.37353832,0.0001571,53.2171,151.5439,51.6086,152.3093,-0.020986,-0.00720092,0.0,0 STARLINK-3700,1 51956U 22025A   22139.58335648 -.00720092  00000-0 -20986-1 0  9994,2 51956  53.2171 151.5439 0001571  51.6086 152.3093 15.37353832  1302,6832.075,93.667,455.013,452.867,0.0
51956.0,STARLINK-3700,PAYLOAD,2022-05-19 22:00:00,15.36842102,0.0001583,53.2173,149.977,49.3893,200.0121,-0.021245,-0.00717175,0.0,0 STARLINK-3700,1 51956U 22025A   22139.91667824 -.00717175  00000-0 -21245-1 0  9992,2 51956  53.2173 149.9770 0001583  49.3893 200.0121 15.36842102 12459,6833.590999999999,93.699,456.538,454.375,0.0
51956.0,STARLINK-3700,PAYLOAD,2022-05-20 14:00:01,15.3582462,0.0001419999999999,53.2171,146.8521,48.7775,289.8752,-0.022079,-0.00720845,0.0,0 STARLINK-3700,1 51956U 22025A   22140.58334491 -.00720845  00000-0 -22079-1 0  9992,2 51956  53.2171 146.8521 0001420  48.7775 289.8752 15.35824620  1300,6836.609,93.761,459.445,457.503,0.0
51956.0,STARLINK-3700,PAYLOAD,2022-05-20 22:00:00,15.35310825,0.0001405,53.2173,145.2889,45.9716,336.3913,-0.022256,-0.0071515,0.0,0 STARLINK-3700,1 51956U 22025A   22140.91667824 -.00715150  00000-0 -22256-1 0  9998,2 51956  53.2173 145.2889 0001405  45.9716 336.3913 15.35310825 12608,6838.134,93.792,460.96,459.039,0.0
51956.0,STARLINK-3700,PAYLOAD,2022-05-21 06:00:00,15.34803707,0.0001771999999999,53.2174,143.7305,35.3374,30.118,-0.022767,-0.00719456,0.0,0 STARLINK-3700,1 51956U 22025A   22141.25001157 -.00719456  00000-0 -22767-1 0  9997,2 51956  53.2174 143.7305 0001772  35.3374  30.1180 15.34803707  1300,6839.641,93.823,462.718,460.294,0.0
51956.0,STARLINK-3700,PAYLOAD,2022-05-21 14:00:01,15.34292566,0.0001517,53.2171,142.1711,47.0386,60.963,-0.023056,-0.0071693,0.0,0 STARLINK-3700,1 51956U 22025A   22141.58335648 -.00716930  00000-0 -23056-1 0  9994,2 51956  53.2171 142.1711 0001517  47.0386  60.9630 15.34292566  1307,6841.16,93.854,464.062,461.987,0.0
51956.0,STARLINK-3700,PAYLOAD,2022-05-21 20:00:01,15.33908573,0.0001394,53.2173,141.0012,46.8938,2.5048,-0.023273,-0.00715,0.0,0 STARLINK-3700,1 51956U 22025A   22141.83334491 -.00715000  00000-0 -23273-1 0  9995,2 51956  53.2173 141.0012 0001394  46.8938   2.5048 15.33908573 12740,6842.301,93.878,465.12,463.212,0.0
